[{"type": "node", "id": 119800304, "lat": 47.3841491, "lon": 8.5479932, "tags": {"addr:city": "Z\u00fcrich", "addr:housenumber": "101", "addr:postcode": "8006", "addr:street": "Universit\u00e4tstrasse", "alt_name": "Hotel Rigihof", "brand": "Leonardo Boutique Hotels", "name": "Leonardo Boutique Hotel Rigihof", "rooms": "67", "stars": "4", "tourism": "hotel", "wheelchair": "no", "wikidata": "Q111409766"}}, {"type": "node", "id": 261651357, "lat": 47.373738, "lon": 8.5531845, "tags": {"addr:city": "Z\u00fcrich", "addr:housenumber": "26", "addr:postcode": "8032", "addr:street": "Plattenstrasse", "name": "Plattenhof", "tourism": "hotel", "website": "https://plattenhof.ch/", "wheelchair": "limited"}}, {"type": "node", "id": 268411423, "lat": 47.3616226, "lon": 8.5513071, "tags": {"addr:city": "Z\u00fcrich", "addr:country": "CH", "addr:housenumber": "63", "addr:postcode": "8008", "addr:street": "Seefeldstrasse", "email": "seefeld@sorellhotels.com", "internet_access": "wlan", "internet_access:fee": "no", "name": "Sorell Hotel Seefeld", "operator": "ZFV-Unternehmungen", "rooms": "64", "smoking": "no", "stars": "3", "toilets:wheelchair": "yes", "tourism": "hotel", "website": "https://sorellhotels.com/seefeld/", "wheelchair": "yes", "wikidata": "Q111874781"}}, {"type": "node", "id": 268411928, "lat": 47.3671121, "lon": 8.5393433, "tags": {"addr:city": "Z\u00fcrich", "addr:country": "CH", "addr:housenumber": "1", "addr:postcode": "8001", "addr:street": "Talstrasse", "name": "Hotel Baur au Lac", "tourism": "hotel", "website": "https://www.bauraulac.ch/", "wikidata": "Q811691", "wikimedia_commons": "Category:Baur au Lac", "wikipedia": "en:Baur au Lac"}}, {"type": "node", "id": 268412177, "lat": 47.3697691, "lon": 8.5397725, "tags": {"addr:city": "Z\u00fcrich", "addr:housenumber": "12", "addr:postcode": "8001", "addr:street": "Poststrasse", "alt_name": "Mandarin Oriental Savoy Z\u00fcrich", "branch": "Z\u00fcrich", "brand": "Mandarin Oriental Hotel", "brand:wikidata": "Q1236521", "check_date": "2024-08-09", "email": "mozrh-reservations@mohg.com", "name": "Mandarin Oriental Savoy", "operator": "Mandarin Oriental (Switzerland)", "phone": "+41 43 588 38 88", "tourism": "hotel", "website": "https://www.mandarinoriental.com/en/zurich/savoy"}}, {"type": "node", "id": 268473495, "lat": 47.364231, "lon": 8.5471877, "tags": {"addr:city": "Z\u00fcrich", "addr:country": "CH", "addr:housenumber": "4", "addr:postcode": "8008", "addr:street": "Dufourstrasse", "name": "Europe", "rooms": "39", "tourism": "hotel", "website": "https://www.europehotel.ch/", "wheelchair": "no", "wikidata": "Q111409733"}}, {"type": "node", "id": 268473496, "lat": 47.3643873, "lon": 8.5470213, "tags": {"addr:city": "Z\u00fcrich", "addr:housenumber": "6", "addr:postcode": "8008", "addr:street": "Falkenstrasse", "check_date": "2024-07-13", "email": "welcome@ambassadorhotel.ch", "fax": "+41 44 258 98 00", "name": "Ambassador", "payment:cash": "yes", "payment:credit_cards": "yes", "payment:debit_cards": "yes", "phone": "+41 44 258 98 98", "stars": "4", "tourism": "hotel", "website": "https://www.ambassadorhotel.ch/", "wheelchair": "yes"}}, {"type": "node", "id": 270799196, "lat": 47.3696848, "lon": 8.5535638, "tags": {"addr:city": "Z\u00fcrich", "addr:housenumber": "31", "addr:postcode": "8032", "addr:street": "Hottingerstrasse", "check_date": "2024-04-03", "name": "Hotel Hottingen", "tourism": "hotel", "website": "https://hotelhottingen.ch"}}, {"type": "node", "id": 270799850, "lat": 47.3682148, "lon": 8.5452505, "tags": {"amenity": "bar", "check_date": "2024-02-24", "name": "Hotel Hechtplatz Bar", "outdoor_seating": "yes", "tourism": "hotel", "wheelchair": "no"}}, {"type": "node", "id": 270800701, "lat": 47.3687308, "lon": 8.5445975, "tags": {"addr:city": "Z\u00fcrich", "addr:housenumber": "18", "addr:postcode": "8001", "addr:street": "Schiffl\u00e4nde", "check_date": "2024-02-24", "name": "California", "tourism": "hotel", "wheelchair": "no"}}, {"type": "node", "id": 270800927, "lat": 47.3691599, "lon": 8.544095, "tags": {"addr:city": "Z\u00fcrich", "addr:housenumber": "30", "addr:postcode": "8001", "addr:street": "Schiffl\u00e4nde", "check_date": "2024-02-06", "name": "Helmhaus", "tourism": "hotel", "website": "https://www.helmhaus.ch", "wheelchair": "no", "wikidata": "Q1603221", "wikipedia": "en:Helmhaus Hotel"}}, {"type": "node", "id": 270802863, "lat": 47.3712661, "lon": 8.5417938, "tags": {"addr:city": "Z\u00fcrich", "addr:housenumber": "2", "addr:postcode": "8001", "addr:street": "Weinplatz", "name": "Storchen", "toilets:wheelchair": "yes", "tourism": "hotel", "website": "https://storchen.ch/", "wheelchair": "yes", "wikidata": "Q30592570", "wikimedia_commons": "Category:Hotel zum Storchen", "wikipedia": "en:Hotel Storchen Z\u00fcrich"}}, {"type": "node", "id": 274983267, "lat": 47.365498, "lon": 8.5360074, "tags": {"addr:city": "Z\u00fcrich", "addr:housenumber": "17", "addr:postcode": "8002", "addr:street": "Stockerstrasse", "brand": "Sheraton", "name": "Sheraton Z\u00fcrich Neues Schloss", "operator": "ABC Betriebs AG;Marriott", "phone": "+41 44 286 94 00", "rooms": "61", "tourism": "hotel"}}, {"type": "node", "id": 274986771, "lat": 47.3675057, "lon": 8.5374869, "tags": {"addr:city": "Z\u00fcrich", "addr:country": "CH", "addr:housenumber": "30", "addr:postcode": "8002", "addr:street": "Claridenstrasse", "check_date": "2023-06-10", "name": "Gl\u00e4rnischhof by Trinity", "phone": "+41 43 344 56 74", "tourism": "hotel", "website": "https://www.hotelglaernischhof.ch/", "wheelchair": "yes", "wikidata": "Q111409735"}}, {"type": "node", "id": 276364166, "lat": 47.4192212, "lon": 8.5054537, "tags": {"addr:city": "Z\u00fcrich", "addr:country": "CH", "addr:housenumber": "551", "addr:postcode": "8046", "addr:street": "Wehntalerstrasse", "check_date": "2024-06-02", "email": "info@hotel-kronenhof.ch", "name": "Kronenhof", "phone": "+41 43 299 20 30", "rooms": "30", "tourism": "hotel", "website": "https://hotel-kronenhof.ch/", "wheelchair": "yes"}}, {"type": "node", "id": 276406403, "lat": 47.3890206, "lon": 8.5170578, "tags": {"addr:city": "Z\u00fcrich", "addr:country": "CH", "addr:housenumber": "11", "addr:postcode": "8005", "addr:street": "Schiffbaustrasse", "brand": "Ibis", "name": "Ibis Z\u00fcrich City West", "operator": "Accor Hotels", "stars": "2", "tourism": "hotel", "website": "https://www.accorhotels.com/", "wheelchair": "yes", "wheelchair:rooms": "5", "wheelchair:source": "http://www.accorhotels.com/de/hotel-2942-ibis-zurich-city-west/", "wikidata": "Q111409761"}}, {"type": "node", "id": 276406426, "lat": 47.3891361, "lon": 8.5167438, "tags": {"addr:city": "Z\u00fcrich", "addr:country": "CH", "addr:housenumber": "13", "addr:postcode": "8005", "addr:street": "Schiffbaustrasse", "brand": "Novotel", "contact:email": "H2731@accor.com", "contact:fax": "+41 44 276 22 99", "contact:phone": "+41 44 276 22 00", "contact:website": "http://www.accorhotels.com/", "name": "Novotel Z\u00fcrich City West", "operator": "Accor Hotels", "stars": "4", "tourism": "hotel", "wheelchair": "yes", "wheelchair:rooms": "5", "wheelchair:source": "http://www.accorhotels.com/de/hotel-2731-novotel-zurich-city-west/", "wikidata": "Q111409764"}}, {"type": "node", "id": 276406491, "lat": 47.3889729, "lon": 8.516186, "tags": {"addr:city": "Z\u00fcrich", "addr:country": "CH", "addr:housenumber": "2", "addr:postcode": "8005", "addr:street": "Technoparkstrasse", "brand": "Ibis Budget", "name": "Ibis Budget Z\u00fcrich City West", "operator": "Accor Hotels", "stars": "1", "tourism": "hotel", "website": "https://www.accorhotels.com/", "wheelchair": "yes", "wheelchair:rooms": "5", "wheelchair:source": "http://www.accorhotels.com/de/hotel-3184-etap-hotel-zurich-city-west-zukunftig-ibis-budget/", "wikidata": "Q111409763"}}, {"type": "node", "id": 283458324, "lat": 47.3769479, "lon": 8.5394468, "tags": {"addr:city": "Z\u00fcrich", "addr:housenumber": "7", "addr:postcode": "8001", "addr:street": "Bahnhofplatz", "check_date": "2024-08-09", "name": "Schweizerhof", "phone": "+41 44 218 88 88", "tourism": "hotel", "website": "https://www.hotelschweizerhof.com", "wheelchair": "yes"}}, {"type": "node", "id": 283458327, "lat": 47.3764123, "lon": 8.5392291, "tags": {"addr:city": "Z\u00fcrich", "addr:housenumber": "87", "addr:postcode": "8001", "addr:street": "Bahnhofstrasse", "name": "St. Gotthard", "operator": "Manz Privacy Hotels", "rooms": "138", "stars": "4", "tourism": "hotel", "website": "https://www.hotelstgotthard.ch/", "wheelchair": "no", "wikidata": "Q112013505"}}, {"type": "node", "id": 283458360, "lat": 47.374918, "lon": 8.536476, "tags": {"addr:city": "Z\u00fcrich", "addr:country": "CH", "addr:housenumber": "34", "addr:postcode": "8001", "addr:street": "L\u00f6wenstrasse", "email": "hotelcity@hotelcity.ch", "internet_access": "wlan", "internet_access:fee": "no", "name": "City Hotel", "phone": "+41 44 217 17 17", "tourism": "hotel", "website": "https://www.hotelcity.ch/", "wheelchair": "yes"}}, {"type": "node", "id": 297711768, "lat": 47.363934, "lon": 8.5320471, "tags": {"addr:city": "Z\u00fcrich", "addr:country": "CH", "addr:housenumber": "9", "addr:postcode": "8002", "addr:street": "Tessinerplatz", "check_date": "2024-06-24", "internet_access": "wlan", "internet_access:fee": "no", "name": "Locke am Platz", "old_name": "Hotel Ascot", "rooms": "74", "tourism": "hotel", "website": "https://www.lockeliving.com/de/zurich/locke-am-platz", "wheelchair": "yes"}}, {"type": "node", "id": 301552459, "lat": 47.3645731, "lon": 8.5342368, "tags": {"addr:city": "Z\u00fcrich", "addr:country": "CH", "addr:housenumber": "2", "addr:postcode": "8002", "addr:street": "Spl\u00fcgenstrasse", "name": "Alden Suite Hotel Spl\u00fcgenschloss", "old_name": "Hotel Spl\u00fcgenschloss", "operator": "Leonardo Hotels", "rooms": "22", "tourism": "hotel", "website": "http://www.alden.ch/", "wikidata": "Q111874779"}}, {"type": "node", "id": 309916732, "lat": 47.3770674, "lon": 8.5277016, "tags": {"addr:city": "Z\u00fcrich", "addr:country": "CH", "addr:housenumber": "18", "addr:postcode": "8004", "addr:street": "Hohlstrasse", "name": "Trip Inn", "tourism": "hotel", "website": "https://tripinn-hotels.com/zurich/", "wikidata": "Q112013500"}}, {"type": "node", "id": 315113810, "lat": 47.362503, "lon": 8.5330275, "tags": {"addr:city": "Z\u00fcrich", "addr:country": "CH", "addr:housenumber": "30", "addr:postcode": "8002", "addr:street": "Breitingerstrasse", "name": "Breitinger", "tourism": "hotel"}}, {"type": "node", "id": 315862585, "lat": 47.3783616, "lon": 8.5206048, "tags": {"addr:city": "Z\u00fcrich", "addr:country": "CH", "addr:housenumber": "56", "addr:postcode": "8004", "addr:street": "Herman-Greulich-Strasse", "name": "Greulich", "tourism": "hotel", "wheelchair": "yes"}}, {"type": "node", "id": 320117205, "lat": 47.3731773, "lon": 8.5316759, "tags": {"addr:city": "Z\u00fcrich", "addr:country": "CH", "addr:housenumber": "1", "addr:postcode": "8004", "addr:street": "Stauffacherquai", "check_date": "2023-09-24", "name": "Helvetia", "phone": "+41 58 678 40 22", "rooms": "14", "tourism": "hotel", "website": "http://www.hotel-helvetia.ch/", "wheelchair": "limited"}}, {"type": "node", "id": 343391109, "lat": 47.3735166, "lon": 8.5439446, "tags": {"addr:city": "Z\u00fcrich", "addr:housenumber": "3", "addr:postcode": "8001", "addr:street": "Spitalgasse", "check_date": "2023-04-24", "name": "PLATZHIRSCH Hotel & Bar", "smoking": "isolated", "tourism": "hotel", "website": "https://www.hotelplatzhirsch.ch/", "wheelchair": "yes"}}, {"type": "node", "id": 365839076, "lat": 47.3847497, "lon": 8.5430595, "tags": {"addr:city": "Z\u00fcrich", "addr:country": "CH", "addr:housenumber": "92", "addr:postcode": "8006", "addr:street": "Weinbergstrasse", "email": "rex@sorellhotels.com", "internet_access": "wlan", "internet_access:fee": "no", "name": "Sorell Hotel Rex", "operator": "ZFV-Unternehmungen", "phone": "+41 44 254 58 00", "rooms": "41", "smoking": "no", "stars": "3", "tourism": "hotel", "website": "https://sorellhotels.com/rex/", "wikidata": "Q111409765"}}, {"type": "node", "id": 365839864, "lat": 47.3880223, "lon": 8.5391198, "tags": {"addr:city": "Z\u00fcrich", "addr:country": "CH", "addr:housenumber": "1", "addr:postcode": "8006", "addr:street": "Schaffhauserstrasse", "check_date": "2023-06-03", "name": "Krone Unterstrass", "tourism": "hotel", "website": "https://hotel-krone.ch/", "wikidata": "Q111409767"}}, {"type": "node", "id": 370531363, "lat": 47.3724404, "lon": 8.5398562, "tags": {"addr:city": "Z\u00fcrich", "addr:housenumber": "7", "addr:postcode": "8001", "addr:street": "Rennweg", "check_date": "2024-03-22", "name": "Widder", "tourism": "hotel", "wheelchair": "yes", "wikidata": "Q1247784", "wikipedia": "de:Widder Hotel"}}, {"type": "node", "id": 370837336, "lat": 47.3745945, "lon": 8.543919, "tags": {"addr:city": "Z\u00fcrich", "addr:housenumber": "40", "addr:postcode": "8001", "addr:street": "Niederdorfstrasse", "name": "Hotel Alexander", "stars": "3", "tourism": "hotel", "website": "https://www.hotel-alexander.ch", "wheelchair": "limited", "wikidata": "Q112013503"}}, {"type": "node", "id": 370839580, "lat": 47.3733773, "lon": 8.5432575, "tags": {"addr:city": "Z\u00fcrich", "addr:housenumber": "13", "addr:postcode": "8001", "addr:street": "Niederdorfstrasse", "email": "info@hirschen-zuerich.ch", "fax": "+41 43 268 33 34", "name": "Hotel Hirschen", "phone": "+41 43 268 33 33", "rooms": "27", "tourism": "hotel", "website": "https://www.hirschen-zuerich.ch/", "wheelchair": "no", "wikidata": "Q111874800"}}, {"type": "node", "id": 370840032, "lat": 47.373072, "lon": 8.5439228, "tags": {"addr:city": "Z\u00fcrich", "addr:housenumber": "10", "addr:postcode": "8001", "addr:street": "Niederdorfstrasse", "check_date": "2023-06-04", "name": "Wellenberg", "tourism": "hotel", "website": "https://www.hotel-wellenberg.ch/", "wheelchair": "limited"}}, {"type": "node", "id": 370840847, "lat": 47.3726619, "lon": 8.5436085, "tags": {"addr:city": "Z\u00fcrich", "addr:housenumber": "1", "addr:postcode": "8001", "addr:street": "Niederdorfstrasse", "description": "rooms to let for a minimum of 4 months", "name": "bedsitting-rooms.ch", "tourism": "hotel", "wheelchair": "no"}}, {"type": "node", "id": 428304303, "lat": 47.3812767, "lon": 8.5424243, "tags": {"addr:city": "Z\u00fcrich", "addr:housenumber": "60", "addr:postcode": "8006", "addr:street": "Stampfenbachstrasse", "alt_name": "ibis Styles Z\u00fcrich City", "branch": "Z\u00fcrich City", "brand": "Ibis Styles", "brand:wikidata": "Q3147425", "name": "ibis Styles", "operator": "Accor Hotels", "tourism": "hotel", "website": "https://all.accor.com/hotel/B5J7/index.de.shtml", "wikidata": "Q112013516", "wikimedia_commons": "File:20230202 132138 ibis Styles Adagio ZH.png"}}, {"type": "node", "id": 451720206, "lat": 47.3591861, "lon": 8.5231586, "tags": {"disused:tourism": "hotel", "name": "Hotel Sihlcity", "old_name": "Four Points by Sheraton;Becozy Self-Check Hotel", "rooms": "132", "tourism": "hotel"}}, {"type": "node", "id": 460438490, "lat": 47.3762729, "lon": 8.5446666, "tags": {"addr:city": "Z\u00fcrich", "addr:country": "CH", "addr:housenumber": "69", "addr:postcode": "8001", "addr:street": "Seilergraben", "alt_name": "Swiss Chocolate Hotel", "fax": "+41 44 267 26 71", "name": "Swiss Chocolate by Fassbind", "phone": "+41 44 267 26 70", "source": "survey", "tourism": "hotel", "website": "https://byfassbind.com/de/hotel/swisschocolatezurich/", "wheelchair": "no", "wikidata": "Q111409752"}}, {"type": "node", "id": 567132773, "lat": 47.3802393, "lon": 8.5372867, "tags": {"addr:city": "Z\u00fcrich", "addr:housenumber": "5", "addr:postcode": "8005", "addr:street": "Limmatstrasse", "alt_name": "Fred Hotel Z\u00fcrich Hauptbahnhof", "branch": "Z\u00fcrich Hauptbahnhof", "brand": "Fred Hotels Z\u00fcrich", "name": "Fred Hotel", "old_name": "Walhalla Hotel", "operator": "Fred Tschanz AG", "phone": "+41 44 446 54 00", "tourism": "hotel", "website": "https://fredhotels.ch/de/hauptbahnhof/", "wikidata": "Q112013511"}}, {"type": "node", "id": 632545301, "lat": 47.3789806, "lon": 8.5449371, "tags": {"addr:city": "Z\u00fcrich", "addr:housenumber": "6", "addr:postcode": "8001", "addr:street": "Leonhardstrasse", "internet_access": "wlan", "name": "Hotel Royal", "source": "SchutzundRettung Z\u00fcrich", "tourism": "hotel", "wikidata": "Q111874813"}}, {"type": "node", "id": 638389144, "lat": 47.3731339, "lon": 8.543482, "tags": {"addr:city": "Z\u00fcrich", "addr:housenumber": "10", "addr:postcode": "8001", "addr:street": "Rosengasse", "check_date": "2023-06-04", "name": "Hotel Adler", "tourism": "hotel", "website": "https://www.hotel-adler.ch/", "wheelchair": "no", "wikidata": "Q111409743"}}, {"type": "node", "id": 638984405, "lat": 47.3732271, "lon": 8.5433304, "tags": {"addr:city": "Z\u00fcrich", "addr:housenumber": "5", "addr:postcode": "8001", "addr:street": "Rosengasse", "check_date": "2023-06-04", "name": "SPLENDID", "tourism": "hotel", "wheelchair": "yes"}}, {"type": "node", "id": 639048685, "lat": 47.3723574, "lon": 8.5431576, "tags": {"addr:city": "Z\u00fcrich", "addr:housenumber": "8", "addr:postcode": "8001", "addr:street": "Schneggengasse", "check_date": "2023-06-04", "contact:email": "reservation@statthotel.ch", "contact:fax": "+41 43 343 98 78", "contact:phone": "+41 43 268 59 30", "contact:website": "http://www.statthotel.ch", "name": "stattHotel", "rooms": "13", "smoking": "no", "tourism": "hotel", "wheelchair": "no"}}, {"type": "node", "id": 639048688, "lat": 47.3737914, "lon": 8.5430563, "tags": {"addr:city": "Z\u00fcrich", "addr:housenumber": "88", "addr:postcode": "8001", "addr:street": "Limmatquai", "email": "welcome@kronezurich.ch", "internet_access": "wlan", "internet_access:fee": "no", "name": "Pop Up Hotel Krone Zurich", "phone": "+41 445004180", "tourism": "hotel", "website": "https://www.kronezurich.ch/", "wheelchair": "limited"}}, {"type": "node", "id": 656327691, "lat": 47.3752188, "lon": 8.5444857, "tags": {"addr:city": "Z\u00fcrich", "addr:housenumber": "25", "addr:postcode": "8001", "addr:street": "Z\u00e4hringerstrasse", "name": "Felix", "tourism": "hotel", "website": "https://www.hotelfelix.ch/", "wheelchair": "yes", "wheelchair:description": "Rollstuhleingang", "wikidata": "Q111874803"}}, {"type": "node", "id": 656327693, "lat": 47.3750719, "lon": 8.5444095, "tags": {"addr:city": "Z\u00fcrich", "addr:country": "CH", "addr:housenumber": "21", "addr:postcode": "8001", "addr:street": "Z\u00e4hringerstrasse", "brand": "Best Western Plus", "brand:wikidata": "Q830334", "contact:email": "info@zurcherhof.ch", "contact:phone": "+41 44 269 44 44", "contact:website": "https://www.zurcherhof.ch/", "internet_access": "yes", "internet_access:fee": "no", "name": "Best Western Plus Hotel Z\u00fcrcherhof", "operator": "Best Western", "rooms": "39", "smoking": "no", "tourism": "hotel", "wheelchair": "yes", "wikidata": "Q111409746"}}, {"type": "node", "id": 656327717, "lat": 47.3757274, "lon": 8.5444631, "tags": {"addr:city": "Z\u00fcrich", "addr:housenumber": "33", "addr:postcode": "8001", "addr:street": "Z\u00e4hringerstrasse", "check_date": "2024-02-28", "name": "Citystudios", "phone": "+41 78 692 91 16", "tourism": "hotel", "wheelchair": "no"}}, {"type": "node", "id": 656327757, "lat": 47.3744622, "lon": 8.5448208, "tags": {"addr:city": "Z\u00fcrich", "addr:housenumber": "17", "addr:postcode": "8001", "addr:street": "M\u00fchlegasse", "check_date": "2024-10-26", "name": "Scheuble", "tourism": "hotel", "wheelchair": "no", "wikidata": "Q111874802"}}, {"type": "node", "id": 656327813, "lat": 47.375978, "lon": 8.5438053, "tags": {"addr:city": "Z\u00fcrich", "addr:housenumber": "136", "addr:postcode": "8001", "addr:street": "Limmatquai", "name": "Limmatblick", "tourism": "hotel", "wheelchair": "no", "wikidata": "Q111874805"}}, {"type": "node", "id": 656327834, "lat": 47.3761683, "lon": 8.5443812, "tags": {"addr:city": "Z\u00fcrich", "addr:country": "CH", "addr:housenumber": "43", "addr:postcode": "8001", "addr:street": "Z\u00e4hringerstrasse", "internet_access": "wlan", "internet_access:fee": "no", "name": "Sorell Hotel R\u00fctli", "operator": "ZFV-Unternehmungen", "rooms": "58", "stars": "3", "tourism": "hotel", "website": "https://sorellhotels.com/ruetli/", "wheelchair": "limited", "wheelchair:description": "Restaurant gut zug\u00e4nglich. Hotel sehr wahrscheinlich ohne Lift.", "wikidata": "Q111409751"}}, {"type": "node", "id": 656327837, "lat": 47.3764444, "lon": 8.544161, "tags": {"addr:city": "Z\u00fcrich", "addr:country": "CH", "addr:housenumber": "142", "addr:postcode": "8001", "addr:street": "Limmatquai", "name": "Limmathof", "phone": "+41 44 267 60 40", "tourism": "hotel", "website": "https://www.limmathof.com/", "wheelchair": "no", "wikidata": "Q111120296"}}, {"type": "node", "id": 683372569, "lat": 47.3770836, "lon": 8.543634, "tags": {"addr:city": "Z\u00fcrich", "addr:housenumber": "1", "addr:postcode": "8001", "addr:street": "Central", "internet_access": "wlan", "name": "Central Plaza", "name:zh": "\u4e2d\u592e\u5e7f\u573a\u9152\u5e97", "phone": "+41 44 256 56 56", "toilets:wheelchair": "yes", "tourism": "hotel", "wheelchair": "yes", "wikidata": "Q111874809"}}, {"type": "node", "id": 701734717, "lat": 47.4105397, "lon": 8.5530471, "tags": {"addr:city": "Z\u00fcrich", "addr:country": "CH", "addr:housenumber": "48", "addr:postcode": "8050", "addr:street": "Wallisellenstrasse", "brand": "Holiday Inn", "name": "Holiday Inn Z\u00fcrich Messe", "operator": "Turicum Hotel Management;Intercontinental Hotels Group", "phone": "+41 44 316 11 00", "toilets:wheelchair": "yes", "tourism": "hotel", "website": "https://www.holidayinn.com/hotels/de/de/zurich/zrhme/hoteldetail", "wheelchair": "yes"}}, {"type": "node", "id": 760369394, "lat": 47.3693222, "lon": 8.5440348, "tags": {"addr:city": "Z\u00fcrich", "addr:housenumber": "4", "addr:postcode": "8001", "addr:street": "Kirchgasse", "name": "Altstadt Hotel", "rooms": "25", "stars": "3", "tourism": "hotel", "website": "https://hotel-altstadt.ch/", "wheelchair": "limited", "wikidata": "Q111874788"}}, {"type": "node", "id": 905150772, "lat": 47.3782999, "lon": 8.5291133, "tags": {"addr:city": "Z\u00fcrich", "addr:country": "CH", "addr:housenumber": "14", "addr:postcode": "8004", "addr:street": "Zwinglistrasse", "check_date": "2023-05-12", "name": "EasyHotel Z\u00fcrich", "operator": "EasyHotel", "tourism": "hotel", "website": "http://de.easyhotel.com/hotels/zuerich.html", "wheelchair": "yes"}}, {"type": "node", "id": 914703152, "lat": 47.3758989, "lon": 8.5276621, "tags": {"addr:city": "Z\u00fcrich", "addr:housenumber": "62", "addr:postcode": "8004", "addr:street": "B\u00e4ckerstrasse", "check_date": "2024-06-19", "name": "The Yard", "tourism": "hotel", "website": "https://hotel.theyard.ch/", "wheelchair": "no", "wheelchair:description": "2 Stufen beim Eingang"}}, {"type": "node", "id": 922080796, "lat": 47.3808121, "lon": 8.5352681, "tags": {"addr:city": "Z\u00fcrich", "addr:country": "CH", "addr:housenumber": "39", "addr:postcode": "8005", "addr:street": "Konradstrasse", "check_date": "2024-02-25", "name": "Montana", "operator": "Candrian Catering", "stars": "3", "tourism": "hotel", "wheelchair": "limited"}}, {"type": "node", "id": 1193218657, "lat": 47.3785429, "lon": 8.5091646, "tags": {"addr:city": "Z\u00fcrich", "addr:country": "CH", "addr:housenumber": "357", "addr:postcode": "8003", "addr:street": "Badenerstrasse", "brand": "Mercure", "internet_access": "wlan", "internet_access:fee": "no", "name": "Mercure Stoller Z\u00fcrich", "operator": "Accor Hotels", "phone": "+41 44 405 47 47", "rooms": "80", "smoking": "no", "stars": "4", "toilets:wheelchair": "no", "tourism": "hotel", "website": "https://www.accorhotels.com/de/hotel-5488-mercure-stoller-zurich/index.shtml", "wheelchair": "limited", "wikidata": "Q111409739"}}, {"type": "node", "id": 1363050798, "lat": 47.3622444, "lon": 8.5475908, "tags": {"addr:city": "Z\u00fcrich", "addr:housenumber": "47", "addr:postcode": "8008", "addr:street": "Utoquai", "email": "info@ameron-zuerich.ch", "name": "AMERON Z\u00fcrich Bellerive au Lac", "phone": "+41 44 244 42 42", "tourism": "hotel", "website": "https://ameroncollection.com/de/zuerich-bellerive-au-lac", "wheelchair": "yes", "wikidata": "Q112013484"}}, {"type": "node", "id": 1391344432, "lat": 47.3836354, "lon": 8.5403011, "tags": {"addr:city": "Z\u00fcrich", "addr:country": "CH", "addr:housenumber": "1", "addr:postcode": "8006", "addr:street": "Nordstrasse", "check_date": "2024-04-23", "name": "EMA House Hotel Suites", "operator": "EMA House", "tourism": "hotel", "wheelchair": "limited", "wikidata": "Q111409760"}}, {"type": "node", "id": 1454198740, "lat": 47.3777704, "lon": 8.5119228, "tags": {"addr:city": "Z\u00fcrich", "addr:country": "CH", "addr:housenumber": "324", "addr:postcode": "8004", "addr:street": "Badenerstrasse", "check_date": "2024-09-17", "internet_access": "wlan", "name": "Olympia", "operator": "Stoller Z\u00fcrich", "phone": "+41 44 491 77 66", "tourism": "hotel", "website": "https://www.hotelolympia.ch/", "wikidata": "Q112013493"}}, {"type": "node", "id": 1573053765, "lat": 47.4143009, "lon": 8.5412445, "tags": {"addr:city": "Z\u00fcrich", "addr:country": "CH", "addr:housenumber": "19", "addr:postcode": "8050", "addr:street": "Max-Bill-Platz", "brand": "Courtyard by Marriott", "check_date": "2024-03-13", "int_name": "Courtyard Zurich North", "name": "Courtyard Z\u00fcrich Nord", "operator": "SV Hotel;Marriott", "rooms": "152", "tourism": "hotel", "website": "https://www.marriott.de/hotels/travel/zrhcy-courtyard-zurich-north/", "wheelchair": "yes"}}, {"type": "node", "id": 1658919275, "lat": 47.3791281, "lon": 8.5453516, "tags": {"addr:city": "Z\u00fcrich", "addr:country": "CH", "addr:housenumber": "1", "addr:postcode": "8001", "addr:street": "Leonhardstrasse", "alt_name": "Fred Hotel Z\u00fcrich Leonhardstrasse", "branch": "Z\u00fcrich Leonhardstrasse", "brand": "Fred Hotels Z\u00fcrich", "internet_access": "wlan", "internet_access:fee": "no", "name": "Fred Hotel", "old_name": "Leoneck Hotel", "operator": "Fred Tschanz AG", "phone": "+41 44 442 68 00", "tourism": "hotel", "website": "https://fredhotels.ch/de/leonhardstrasse"}}, {"type": "node", "id": 1967357699, "lat": 47.3881885, "lon": 8.5142697, "tags": {"addr:city": "Z\u00fcrich", "addr:country": "CH", "addr:housenumber": "20", "addr:postcode": "8005", "addr:street": "Turbinenstrasse", "brand": "Renaissance Hotels", "internet_access": "yes", "internet_access:fee": "no", "name": "Renaissance Tower Hotel", "note": "Etagen 0-14", "operator": "SV Hotel;Marriott", "phone": "+41 44 630 30 30", "smoking": "no", "tourism": "hotel", "website": "https://www.marriott.com/hotels/travel/zrhbr-renaissance-zurich-tower-hotel/", "wheelchair": "yes", "wikidata": "Q18027214", "wikimedia_commons": "Category:Renaissance Zurich Tower Hotel"}}, {"type": "node", "id": 2429347243, "lat": 47.3737041, "lon": 8.5372276, "tags": {"addr:city": "Z\u00fcrich", "addr:country": "CH", "addr:housenumber": "9", "addr:postcode": "8001", "addr:street": "Sihlstrasse", "brand": "Sorell", "check_date": "2024-08-09", "email": "info@hotelseidenhof.com", "name": "Sorell Hotel Seidenhof", "operator": "ZFV-Unternehmungen", "phone": "+41 44 228 75 00", "stars": "4", "toilets:wheelchair": "yes", "tourism": "hotel", "website": "https://hotelseidenhof.com/", "wheelchair": "yes", "wikidata": "Q111409742"}}, {"type": "node", "id": 2756901512, "lat": 47.3910534, "lon": 8.5099046, "tags": {"addr:city": "Z\u00fcrich", "addr:country": "CH", "addr:housenumber": "102", "addr:postcode": "8005", "addr:street": "Pfingstweidstrasse", "brand": "25hours", "name": "25hours Hotel Z\u00fcrich West", "operator": "Accor Hotels", "stars": "4", "tourism": "hotel", "website": "https://www.25hours-hotels.com/zurich-west", "wheelchair": "yes", "wikidata": "Q111409758"}}, {"type": "node", "id": 3163049264, "lat": 47.3707325, "lon": 8.5281315, "tags": {"addr:city": "Z\u00fcrich", "addr:country": "CH", "addr:housenumber": "11", "addr:postcode": "8004", "addr:street": "Weberstrasse", "check_date": "2024-07-21", "internet_access": "wlan", "name": "St-Georges", "phone": "+41 44 241 11 44", "rooms": "42", "smoking": "no", "stars": "2", "tourism": "hotel", "website": "https://www.hotel-st-georges.ch/", "wikidata": "Q111874785"}}, {"type": "node", "id": 3398101374, "lat": 47.3874412, "lon": 8.4853017, "tags": {"addr:city": "Z\u00fcrich", "addr:country": "CH", "addr:housenumber": "5", "addr:postcode": "8048", "addr:street": "Lindenplatz", "contact:email": "info@spirgarten.ch", "contact:phone": "+41 44 438 15 15", "contact:website": "https://www.spirgarten.ch/de/", "internet_access": "yes", "internet_access:fee": "no", "name": "Best Western Hotel Spirgarten", "operator": "Best Western", "phone": "+41 44 438 15 15", "rooms": "40", "smoking": "no", "tourism": "hotel", "wheelchair": "yes", "wikidata": "Q111874801"}}, {"type": "node", "id": 3473042481, "lat": 47.384979, "lon": 8.5290417, "tags": {"addr:city": "Z\u00fcrich", "addr:housenumber": "11", "addr:postcode": "8005", "addr:street": "Motorenstrasse", "check_date": "2024-02-20", "name": "Inside Five City Apartments", "phone": "+41 44 542 86 75", "tourism": "hotel", "website": "https://inside-five.ch", "wheelchair": "no"}}, {"type": "node", "id": 3646267493, "lat": 47.3724267, "lon": 8.5406434, "tags": {"addr:city": "Z\u00fcrich", "addr:housenumber": "1", "addr:postcode": "8001", "addr:street": "Pfalzgasse", "name": "Kindli", "tourism": "hotel", "website": "https://www.kindli.ch/hotel", "wheelchair": "no", "wikidata": "Q111874794"}}, {"type": "node", "id": 3729613516, "lat": 47.3989078, "lon": 8.5326965, "tags": {"addr:city": "Z\u00fcrich", "addr:housenumber": "135", "addr:postcode": "8057", "addr:street": "Hofwiesenstrasse", "check_date": "2024-02-24", "name": "Guggach Apartotel", "tourism": "hotel"}}, {"type": "node", "id": 3822324119, "lat": 47.3695783, "lon": 8.5137027, "tags": {"addr:city": "Z\u00fcrich", "addr:country": "CH", "addr:housenumber": "15", "addr:postcode": "8055", "addr:street": "Friesenbergstrasse", "name": "Hotel Neufeld", "phone": "+41 43 960 73 73", "rooms": "40", "stars": "3", "tourism": "hotel", "website": "https://www.hotel-neufeld.ch/", "wheelchair": "no", "wikidata": "Q111874780"}}, {"type": "node", "id": 4202335108, "lat": 47.4084381, "lon": 8.5464569, "tags": {"addr:city": "Z\u00fcrich", "addr:housenumber": "335", "addr:postcode": "8050", "addr:street": "Schaffhauserstrasse", "check_date": "2024-02-11", "internet_access": "wlan", "name": "Hotel Sternen Oerlikon", "tourism": "hotel"}}, {"type": "node", "id": 4218019589, "lat": 47.3691991, "lon": 8.5511703, "tags": {"addr:city": "Z\u00fcrich", "addr:housenumber": "8", "addr:postcode": "8032", "addr:street": "Steinwiesstrasse", "name": "Swiss Night by Fassbind / Claridge", "tourism": "hotel"}}, {"type": "node", "id": 4295284933, "lat": 47.3707999, "lon": 8.5405057, "tags": {"addr:city": "Z\u00fcrich", "addr:housenumber": "10", "addr:postcode": "8001", "addr:street": "In Gassen", "alt_name": "Hotel St. Peter", "brand": "Sorell", "email": "stpeter@sorellhotels.com", "name": "Sorell Hotel St. Peter", "operator": "ZFV-Unternehmungen", "phone": "+41 44 521 03 03", "stars": "4", "start_date": "2020-06-15", "tourism": "hotel", "website": "https://sorellhotels.com/de/st-peter/zuerich", "wikidata": "Q112013491"}}, {"type": "node", "id": 4364350617, "lat": 47.3720094, "lon": 8.5353963, "tags": {"addr:city": "Z\u00fcrich", "addr:country": "CH", "addr:housenumber": "42", "addr:postcode": "8001", "addr:street": "Talacker", "brand": "citizenM", "brand:wikidata": "Q5122531", "check_date": "2024-04-10", "name": "citizenM Hotel", "phone": "+41 44 508 71 45", "rooms": "160", "start_date": "2019-08-01", "tourism": "hotel", "website": "https://www.citizenm.com/", "wikidata": "Q111874790"}}, {"type": "node", "id": 4585509555, "lat": 47.3761644, "lon": 8.5410852, "tags": {"name": "Ruby", "tourism": "hotel", "website": "https://www.ruby-hotels.com/hotels-destinations/zurich/ruby-mimi"}}, {"type": "node", "id": 4833061585, "lat": 47.3720083, "lon": 8.5434795, "tags": {"addr:city": "Z\u00fcrich", "addr:country": "CH", "addr:housenumber": "17", "addr:postcode": "8001", "addr:street": "Marktgasse", "name": "Marktgasse Hotel", "old_name": "Gasthof Rothaus", "operator": "Ospena Group", "rooms": "39", "tourism": "hotel", "website": "https://www.marktgassehotel.ch/", "wheelchair": "limited", "wikidata": "Q111874795"}}, {"type": "node", "id": 4868072661, "lat": 47.3828583, "lon": 8.5302229, "tags": {"addr:city": "Z\u00fcrich", "addr:housenumber": "210", "addr:postcode": "8005", "addr:street": "Langstrasse", "name": "Gasthaus 210", "tourism": "hotel", "wikidata": "Q112013513"}}, {"type": "node", "id": 4889986288, "lat": 47.3824551, "lon": 8.5669111, "tags": {"addr:city": "Z\u00fcrich", "addr:country": "CH", "addr:housenumber": "21", "addr:postcode": "8044", "addr:street": "Orellistrasse", "email": "zuerichberg@sorellhotels.com", "internet_access": "wlan", "internet_access:fee": "no", "name": "Sorell Hotel Z\u00fcrichberg", "operator": "ZFV-Unternehmungen", "rooms": "66", "stars": "4", "tourism": "hotel", "website": "https://sorellhotels.com/zuerichberg/", "wikidata": "Q111409768"}}, {"type": "node", "id": 4889986290, "lat": 47.3883804, "lon": 8.5533903, "tags": {"addr:city": "Z\u00fcrich", "addr:country": "CH", "addr:housenumber": "99", "addr:postcode": "8044", "addr:street": "Germaniastrasse", "email": "rigiblick@sorellhotels.com", "internet_access": "wlan", "internet_access:fee": "no", "name": "Sorell Hotel Rigiblick", "operator": "ZFV-Unternehmungen", "rooms": "7", "tourism": "hotel", "website": "https://sorellhotels.com/rigiblick/", "wikidata": "Q112013525"}}, {"type": "node", "id": 4891858486, "lat": 47.3799745, "lon": 8.5274439, "tags": {"addr:city": "Z\u00fcrich", "addr:country": "CH", "addr:housenumber": "6", "addr:postcode": "8004", "addr:street": "Sch\u00f6neggstrasse", "check_date": "2024-08-24", "name": "Hotel Gregory", "operator": "Holenstein Gastro", "phone": "+41 44 241 22 02", "smoking": "no", "tourism": "hotel", "website": "https://www.hotel-gregory.ch/", "wikidata": "Q111874806"}}, {"type": "node", "id": 4958366051, "lat": 47.364315, "lon": 8.5477947, "tags": {"addr:city": "Z\u00fcrich", "addr:housenumber": "11", "addr:postcode": "8008", "addr:street": "Seehofstrasse", "amenity": "restaurant", "name": "Seehof", "tourism": "hotel", "wheelchair": "no", "wikidata": "Q111874783"}}, {"type": "node", "id": 4977482167, "lat": 47.3824496, "lon": 8.5006026, "tags": {"addr:city": "Z\u00fcrich", "addr:country": "CH", "addr:housenumber": "537", "addr:postcode": "8048", "addr:street": "Badenerstrasse", "check_date": "2024-09-17", "email": "zuerich@h-hotels.com", "name": "H+ Hotel Z\u00fcrich", "old_name": "Ramada Hotel Z\u00fcrich", "phone": "+41 44 437 99 00", "tourism": "hotel", "website": "https://www.h-hotels.com/de/hplus/hotels/hplus-hotel-zuerich", "wikidata": "Q112013497"}}, {"type": "node", "id": 5257755054, "lat": 47.383414, "lon": 8.4922958, "tags": {"addr:city": "Z\u00fcrich", "addr:country": "CH", "addr:housenumber": "36", "addr:postcode": "8048", "addr:street": "Buckhauserstrasse", "email": "info@placid.ch", "name": "Placid Hotel", "phone": "+41 58 204 90 90", "rooms": "87", "stars": "4", "toilets:wheelchair": "yes", "tourism": "hotel", "website": "https://www.placid.ch/de", "wheelchair": "yes"}}, {"type": "node", "id": 5263493074, "lat": 47.3761679, "lon": 8.5400087, "tags": {"addr:city": "Z\u00fcrich", "addr:housenumber": "7", "addr:postcode": "8001", "addr:street": "Sch\u00fctzengasse", "alt_name": "Townhouse Boutique Hotel", "internet_access": "wlan", "internet_access:fee": "no", "name": "Hotel Townhouse", "rooms": "25", "tourism": "hotel", "website": "https://townhouse.ch/", "wikidata": "Q111409747"}}, {"type": "node", "id": 5291778938, "lat": 47.3694022, "lon": 8.5335731, "tags": {"addr:city": "Z\u00fcrich", "addr:country": "CH", "addr:housenumber": "25", "addr:postcode": "8002", "addr:street": "Brandschenkestrasse", "check_date": "2024-08-19", "name": "Motel One", "phone": "+41 44 226 77 00", "tourism": "hotel", "website": "https://www.motel-one.com/", "wikidata": "Q111409736"}}, {"type": "node", "id": 5359167745, "lat": 47.3907286, "lon": 8.5101238, "tags": {"addr:city": "Z\u00fcrich", "addr:country": "CH", "addr:housenumber": "100", "addr:postcode": "8005", "addr:street": "Pfingstweidstrasse", "brand": "Sheraton", "internet_access": "wlan", "internet_access:fee": "no", "name": "Sheraton Z\u00fcrich", "note": "Etagen 0-10", "operator": "ABC Betriebs AG;Marriott", "phone": "+41 44 285 40 00", "smoking": "no", "tourism": "hotel", "website": "http://www.sheratonzurichhotel.com/", "wheelchair": "yes", "wikidata": "Q111409759"}}, {"type": "node", "id": 5450866700, "lat": 47.3642706, "lon": 8.5476221, "tags": {"addr:city": "Z\u00fcrich", "addr:housenumber": "5", "addr:postcode": "8008", "addr:street": "Dufourstrasse", "name": "Opera", "tourism": "hotel", "website": "https://www.operahotel.ch/", "wheelchair": "no"}}, {"type": "node", "id": 5535868990, "lat": 47.3696334, "lon": 8.5334346, "tags": {"addr:city": "Z\u00fcrich", "addr:country": "CH", "addr:housenumber": "10", "addr:postcode": "8001", "addr:street": "Brandschenkestrasse", "amenity": "bar", "email": "zuerich@flemings-hotels.com", "internet_access": "wlan", "internet_access:fee": "no", "name": "Fleming's", "phone": "+41 44 563 00 00", "smoking": "no", "stars": "4", "tourism": "hotel", "website": "https://www.flemings-hotels.com/hotels-residences/zuerich", "wheelchair": "no"}}, {"type": "node", "id": 5658634792, "lat": 47.3796483, "lon": 8.543557, "tags": {"addr:city": "Z\u00fcrich", "addr:housenumber": "34", "addr:postcode": "8006", "addr:street": "Stampfenbachstrasse", "email": "info@hotelbristol.ch", "name": "Bristol", "phone": "+41 44 258 44 44", "stars": "3", "tourism": "hotel", "website": "https://www.hotelbristol.ch/", "wikidata": "Q111120297"}}, {"type": "node", "id": 5743606600, "lat": 47.3644259, "lon": 8.5244677, "tags": {"addr:city": "Z\u00fcrich", "addr:country": "CH", "addr:housenumber": "152", "addr:postcode": "8002", "addr:street": "Brandschenkestrasse", "email": "zurich@b2boutiquehotels.com", "name": "B2 Boutique Hotel + Spa Z\u00fcrich", "operator": "Turicum Hotel Management", "phone": "+41 44 567 67 67", "tourism": "hotel", "website": "https://www.b2boutiquehotels.com/", "wikidata": "Q111409730"}}, {"type": "node", "id": 5977527357, "lat": 47.3934723, "lon": 8.4844851, "tags": {"addr:city": "Z\u00fcrich", "addr:housenumber": "108b", "addr:postcode": "8048", "addr:street": "Vulkanstrasse", "check_date": "2024-03-23", "name": "Mercure Hotel Z\u00fcrich City", "tourism": "hotel"}}, {"type": "node", "id": 6137021342, "lat": 47.3804427, "lon": 8.5287088, "tags": {"brand": "25hours", "check_date": "2024-02-25", "contact:website": "https://www.25hours-hotels.com/hotels/zuerich/langstrasse", "internet_access": "wlan", "internet_access:fee": "no", "name": "25hours Hotel Z\u00fcrich Langstrasse", "operator": "Accor Hotels", "stars": "4", "start_date": "2017", "tourism": "hotel", "wheelchair": "yes"}}, {"type": "node", "id": 7043797394, "lat": 47.3793871, "lon": 8.5273971, "tags": {"check_date": "2024-02-25", "name": "Rothaus", "tourism": "hotel"}}, {"type": "node", "id": 7719486210, "lat": 47.3691333, "lon": 8.5443686, "tags": {"description": "Capsule Hotel", "internet_access": "wlan", "name": "Green Marmot", "tourism": "hotel", "website": "https://greenmarmot.com/"}}, {"type": "node", "id": 8194791906, "lat": 47.3554368, "lon": 8.5572778, "tags": {"addr:city": "Z\u00fcrich", "addr:housenumber": "5", "addr:postcode": "8008", "addr:street": "Karlstrasse", "email": "info@aparthotel.ch", "name": "APARTHOTEL Familie Hugenschmidt", "phone": "+41 (0)44 422 11 75", "tourism": "hotel", "website": "https://www.aparthotel.ch"}}, {"type": "node", "id": 8919382772, "lat": 47.3806452, "lon": 8.5341423, "tags": {"internet_access": "wlan", "internet_access:fee": "customers", "name": "Boutique Hotel Josef", "phone": "+41445767900", "tourism": "hotel", "website": "https://www.hoteljosef.ch/", "wheelchair": "yes"}}, {"type": "node", "id": 9005081579, "lat": 47.3871818, "lon": 8.5539875, "tags": {"check_date": "2024-08-08", "name": "Studentenhaus Justinus", "tourism": "hotel", "website": "https://www.justinus.ch/en/zurich/accueil/index.html"}}, {"type": "node", "id": 9902520718, "lat": 47.3862745, "lon": 8.5280819, "tags": {"brand": "easyHotel", "brand:wikidata": "Q17011598", "check_date": "2024-06-22", "email": "zurich@easyhotel.com", "internet_access": "wlan", "internet_access:fee": "customers", "name": "easyHotel Limmatplatz", "smoking": "no", "tourism": "hotel", "website": "https://www.easyhotel.com/hotels/switzerland/zurich/zurich-limmatplatz", "wheelchair": "no"}}, {"type": "node", "id": 9939566045, "lat": 47.4158194, "lon": 8.5588139, "tags": {"addr:city": "Z\u00fcrich", "addr:housenumber": "5", "addr:postcode": "8050", "addr:street": "Heidi-Abel-Weg", "air_conditioning": "yes", "bar": "yes", "brand": "Ibis", "brand:wikidata": "Q920166", "check_date": "2022-09-29", "email": "H2980@accor.com", "fax": "+41443074747", "internet_access": "wlan", "internet_access:fee": "no", "name": "Ibis Z\u00fcrich Messe Airport", "phone": "+41 44 307 47 00", "rooms": "252", "smoking": "no", "tourism": "hotel", "website": "https://all.accor.com/hotel/2980/index.en.shtml", "wheelchair": "yes", "wikidata": "Q111409774"}}, {"type": "node", "id": 10963019384, "lat": 47.379243, "lon": 8.5276061, "tags": {"contact:city": "Z\u00fcrich", "contact:housenumber": "120", "contact:postcode": "8004", "contact:street": "Langstrasse", "name": "Nani City Hotel", "tourism": "hotel"}}, {"type": "node", "id": 11777908597, "lat": 47.3692673, "lon": 8.5444475, "tags": {"name": "Hotel R\u00f6ssli", "rooms": "29", "stars": "3", "tourism": "hotel", "website": "https://www.hotelroessli.ch/"}}, {"type": "node", "id": 11806457676, "lat": 47.3812254, "lon": 8.5424567, "tags": {"addr:city": "Z\u00fcrich", "addr:housenumber": "60", "addr:postcode": "8006", "addr:street": "Stampfenbachstrasse", "alt_name": "Adagio Aparthotel Z\u00fcrich City", "branch": "Z\u00fcrich City", "brand": "Adagio", "brand:wikidata": "Q2823880", "name": "Aparthotel Adagio", "operator": "Accor Hotels", "tourism": "hotel", "website": "https://all.accor.com/hotel/B5J8/index.de.shtml"}}, {"type": "way", "id": 33854799, "bounds": {"minlat": 47.3752586, "minlon": 8.5457223, "maxlat": 47.3754693, "maxlon": 8.5460576}, "nodes": [387850443, 1205467696, 1205467270, 387850444, 387850445, 387850446, 387850443], "geometry": [{"lat": 47.3754693, "lon": 8.5459905}, {"lat": 47.375365, "lon": 8.5460576}, {"lat": 47.3753318, "lon": 8.5459451}, {"lat": 47.3753045, "lon": 8.5459626}, {"lat": 47.3752586, "lon": 8.545807}, {"lat": 47.3753901, "lon": 8.5457223}, {"lat": 47.3754693, "lon": 8.5459905}], "tags": {"addr:city": "Z\u00fcrich", "addr:country": "CH", "addr:housenumber": "64", "addr:postcode": "8001", "addr:street": "Hirschengraben", "building": "yes", "name": "St. Josef", "source": "Stadt Z\u00fcrich Open Government Data; Geomatik + Vermessung; Tiefbau- und Entsorgungsdepartement", "toilets:wheelchair": "yes", "tourism": "hotel", "website": "https://www.st-josef.ch/", "wheelchair": "yes", "wikidata": "Q111409748"}}, {"type": "way", "id": 41675775, "bounds": {"minlat": 47.3627239, "minlon": 8.4951156, "maxlat": 47.3634501, "maxlon": 8.4961887}, "nodes": [512483363, 3709073456, 512483364, 3709073458, 3709073459, 3709073457, 512483365, 3709073455, 3709073454, 8316043453, 8316043452, 512483367, 8316043451, 8316043454, 8316043455, 512483368, 3709073447, 3709073448, 512483357, 512483358, 8315926503, 8316043449, 8316043450, 8316043448, 3709073449, 8316043456, 8316043457, 8316043445, 8316043444, 8316043443, 8316043442, 8316043441, 3709073450, 3709073452, 8316043447, 3709073453, 8316043446, 512483363], "geometry": [{"lat": 47.3632221, "lon": 8.4957245}, {"lat": 47.3633766, "lon": 8.4957893}, {"lat": 47.3633876, "lon": 8.4957319}, {"lat": 47.3634145, "lon": 8.4957432}, {"lat": 47.3634501, "lon": 8.4955585}, {"lat": 47.3633973, "lon": 8.4955365}, {"lat": 47.3634056, "lon": 8.4954932}, {"lat": 47.3632688, "lon": 8.4953686}, {"lat": 47.3632488, "lon": 8.4954761}, {"lat": 47.3631405, "lon": 8.4954321}, {"lat": 47.3631278, "lon": 8.4954249}, {"lat": 47.3631166, "lon": 8.4954136}, {"lat": 47.3631067, "lon": 8.4953973}, {"lat": 47.3631004, "lon": 8.4953776}, {"lat": 47.3630793, "lon": 8.4952571}, {"lat": 47.3630546, "lon": 8.4951156}, {"lat": 47.3629278, "lon": 8.4951639}, {"lat": 47.362935, "lon": 8.495205}, {"lat": 47.3628958, "lon": 8.4952199}, {"lat": 47.3629547, "lon": 8.4955572}, {"lat": 47.3629569, "lon": 8.4955704}, {"lat": 47.3629582, "lon": 8.4955875}, {"lat": 47.362956, "lon": 8.4956099}, {"lat": 47.3629508, "lon": 8.4956284}, {"lat": 47.3629427, "lon": 8.4956444}, {"lat": 47.3627239, "lon": 8.4959611}, {"lat": 47.3627254, "lon": 8.4959634}, {"lat": 47.3627542, "lon": 8.4960067}, {"lat": 47.3627343, "lon": 8.4960354}, {"lat": 47.3628362, "lon": 8.4961887}, {"lat": 47.3628848, "lon": 8.4961182}, {"lat": 47.3628901, "lon": 8.4961262}, {"lat": 47.3631236, "lon": 8.4957881}, {"lat": 47.3631551, "lon": 8.4957426}, {"lat": 47.3631691, "lon": 8.4957285}, {"lat": 47.3631852, "lon": 8.4957201}, {"lat": 47.3632038, "lon": 8.4957184}, {"lat": 47.3632221, "lon": 8.4957245}], "tags": {"addr:city": "Z\u00fcrich", "addr:country": "CH", "addr:housenumber": "234", "addr:postcode": "8055", "addr:street": "D\u00f6ltschiweg", "building": "hotel", "building:levels": "4", "name": "Five", "old_name": "Hotel Atlantis", "tourism": "hotel", "website": "https://zurich.fivehotelsandresorts.com/"}}, {"type": "way", "id": 45978503, "bounds": {"minlat": 47.3788774, "minlon": 8.5467889, "maxlat": 47.3790603, "maxlon": 8.5470926}, "nodes": [585754724, 2140368563, 2140368561, 585754736, 585754749, 585754705, 585754724], "geometry": [{"lat": 47.3790123, "lon": 8.5468813}, {"lat": 47.3789838, "lon": 8.5469008}, {"lat": 47.3789451, "lon": 8.5467889}, {"lat": 47.3788774, "lon": 8.5468416}, {"lat": 47.3789575, "lon": 8.5470926}, {"lat": 47.3790603, "lon": 8.5470123}, {"lat": 47.3790123, "lon": 8.5468813}], "tags": {"addr:city": "Z\u00fcrich", "addr:country": "CH", "addr:housenumber": "17", "addr:postcode": "8006", "addr:street": "Sonneggstrasse", "building": "hotel", "building:levels": "5", "internet_access": "wlan", "internet_access:fee": "customers", "name": "Hotel Sunnehus", "tourism": "hotel"}}, {"type": "way", "id": 48562004, "bounds": {"minlat": 47.3872932, "minlon": 8.4937017, "maxlat": 47.3875586, "maxlon": 8.4942694}, "nodes": [616840023, 616840024, 12092203470, 616840025, 616840026, 12092203471, 3284099795, 3284099792, 616840028, 616840023], "geometry": [{"lat": 47.3873956, "lon": 8.4937017}, {"lat": 47.3872932, "lon": 8.4940504}, {"lat": 47.3873584, "lon": 8.4941759}, {"lat": 47.3873842, "lon": 8.4942257}, {"lat": 47.387452, "lon": 8.4942694}, {"lat": 47.3874605, "lon": 8.4942402}, {"lat": 47.3875459, "lon": 8.493947}, {"lat": 47.3875215, "lon": 8.4939315}, {"lat": 47.3875586, "lon": 8.4938028}, {"lat": 47.3873956, "lon": 8.4937017}], "tags": {"addr:city": "Z\u00fcrich", "addr:housenumber": "100", "addr:postcode": "8048", "addr:street": "Baslerstrasse", "building": "hotel", "building:levels": "6", "check_date": "2024-04-07", "internet_access": "wlan", "internet_access:fee": "no", "name": "The Flag", "rooms": "101", "stars": "2", "tourism": "hotel", "website": "https://www.theflag-zuerich.ch/", "wikidata": "Q111409749"}}, {"type": "way", "id": 53909869, "bounds": {"minlat": 47.3640995, "minlon": 8.4966178, "maxlat": 47.3643544, "maxlon": 8.4970055}, "nodes": [680436012, 680436010, 10744960007, 680436111, 3627551456, 680436138, 3627551457, 3627551458, 3627551459, 680436012], "geometry": [{"lat": 47.3642012, "lon": 8.4966178}, {"lat": 47.3643544, "lon": 8.4968723}, {"lat": 47.3643127, "lon": 8.4969104}, {"lat": 47.3642528, "lon": 8.4970055}, {"lat": 47.3640995, "lon": 8.4967507}, {"lat": 47.3641295, "lon": 8.4967113}, {"lat": 47.3641119, "lon": 8.4966821}, {"lat": 47.364153, "lon": 8.4966282}, {"lat": 47.3641708, "lon": 8.4966577}, {"lat": 47.3642012, "lon": 8.4966178}], "tags": {"addr:city": "Z\u00fcrich", "addr:country": "CH", "addr:housenumber": "49", "addr:postcode": "8055", "addr:street": "D\u00f6ltschihalde", "building": "yes", "building:levels": "5", "internet_access": "wlan", "internet_access:fee": "no", "name": "the guests' house", "stars": "3", "tourism": "hotel", "website": "https://www.theguestshouse.ch/"}}, {"type": "way", "id": 54534103, "bounds": {"minlat": 47.3800403, "minlon": 8.50582, "maxlat": 47.3806613, "maxlon": 8.5069794}, "nodes": [1831341071, 686907070, 686906907, 5479755788, 5479755787, 5479755786, 5479755789, 11847979920, 11847979921, 11847979922, 686906943, 3431421629, 3431421621, 3431421620, 3431421613, 3431421610, 3431421609, 3431421605, 3431421607, 3431421603, 3431421606, 11847979918, 686907050, 11847969943, 11891936555, 686907145, 11891936560, 11891936561, 686907091, 11891936562, 11847969956, 5478270312, 1831341075, 686906913, 686907023, 1831341071], "geometry": [{"lat": 47.3805276, "lon": 8.5063047}, {"lat": 47.3804294, "lon": 8.5062076}, {"lat": 47.3803742, "lon": 8.5063295}, {"lat": 47.3804784, "lon": 8.5064325}, {"lat": 47.3804711, "lon": 8.5064486}, {"lat": 47.3804897, "lon": 8.506467}, {"lat": 47.3804966, "lon": 8.5064517}, {"lat": 47.3805214, "lon": 8.5064762}, {"lat": 47.3804477, "lon": 8.506639}, {"lat": 47.3804268, "lon": 8.5066184}, {"lat": 47.3804261, "lon": 8.5066199}, {"lat": 47.3804195, "lon": 8.5066133}, {"lat": 47.3803513, "lon": 8.5067638}, {"lat": 47.3803416, "lon": 8.5067542}, {"lat": 47.3802396, "lon": 8.5069794}, {"lat": 47.3801837, "lon": 8.5069241}, {"lat": 47.3801742, "lon": 8.506945}, {"lat": 47.3801484, "lon": 8.5069195}, {"lat": 47.3801659, "lon": 8.5068808}, {"lat": 47.3801401, "lon": 8.5068553}, {"lat": 47.3801557, "lon": 8.506821}, {"lat": 47.3801533, "lon": 8.5068186}, {"lat": 47.3801458, "lon": 8.5068112}, {"lat": 47.3800768, "lon": 8.506743}, {"lat": 47.3800494, "lon": 8.506716}, {"lat": 47.3800403, "lon": 8.506707}, {"lat": 47.3801344, "lon": 8.5064992}, {"lat": 47.3802857, "lon": 8.5061653}, {"lat": 47.3804421, "lon": 8.50582}, {"lat": 47.3804519, "lon": 8.5058296}, {"lat": 47.3804616, "lon": 8.5058392}, {"lat": 47.3805476, "lon": 8.5059242}, {"lat": 47.3806541, "lon": 8.5060294}, {"lat": 47.3806613, "lon": 8.5060855}, {"lat": 47.3805676, "lon": 8.5062924}, {"lat": 47.3805276, "lon": 8.5063047}], "tags": {"addr:city": "Z\u00fcrich", "addr:country": "CH", "addr:housenumber": "420", "addr:postcode": "8004", "addr:street": "Badenerstrasse", "brand": "Crowne Plaza", "building": "hotel", "int_name": "Crowne Plaza Zurich", "name": "Crowne Plaza Z\u00fcrich", "source": "Stadt Z\u00fcrich Open Government Data;Geomatik + Vermessung;Tiefbau- und Entsorgungsdepartement", "tourism": "hotel", "website": "https://www.cpzurich.ch/", "wheelchair": "yes", "wheelchair:rooms": "3", "wheelchair:source": "http://www.cpzurich.ch/g3.cms/s_page/81680/s_name/behindertengerechtezimmer/s_element/164960", "wikidata": "Q111409741"}}, {"type": "way", "id": 80340835, "bounds": {"minlat": 47.3724564, "minlon": 8.5359345, "maxlat": 47.3729884, "maxlon": 8.5367615}, "nodes": [937615517, 3344237882, 937615527, 3251866812, 3344237843, 3344237842, 937615530, 937615519, 937615520, 937615539, 3344237883, 3344237879, 937615515, 937615535, 3344237877, 3344237880, 937615517], "geometry": [{"lat": 47.3726834, "lon": 8.5360455}, {"lat": 47.3727575, "lon": 8.535959}, {"lat": 47.3728005, "lon": 8.5359345}, {"lat": 47.3728187, "lon": 8.5360002}, {"lat": 47.3729132, "lon": 8.5363448}, {"lat": 47.3729614, "lon": 8.5365218}, {"lat": 47.3729884, "lon": 8.5366135}, {"lat": 47.3728866, "lon": 8.5367615}, {"lat": 47.3727857, "lon": 8.5366121}, {"lat": 47.3728201, "lon": 8.5365629}, {"lat": 47.3727584, "lon": 8.536331}, {"lat": 47.3726911, "lon": 8.536385}, {"lat": 47.3725338, "lon": 8.5365809}, {"lat": 47.3724564, "lon": 8.536449}, {"lat": 47.3726402, "lon": 8.5362237}, {"lat": 47.3727178, "lon": 8.5361789}, {"lat": 47.3726834, "lon": 8.5360455}], "tags": {"addr:city": "Z\u00fcrich", "addr:country": "CH", "addr:postcode": "8001", "building": "yes", "check_date": "2024-02-03", "name": "Glockenhof", "source": "Stadt Z\u00fcrich Open Government Data;Geomatik + Vermessung;Tiefbau- und Entsorgungsdepartement", "tourism": "hotel", "website": "https://www.glockenhof.ch/"}}, {"type": "way", "id": 90644021, "bounds": {"minlat": 47.3908328, "minlon": 8.5278966, "maxlat": 47.3910205, "maxlon": 8.5281243}, "nodes": [1052015384, 3257740044, 3257740046, 1052015351, 1052015248, 1052015503, 1052015297, 1517797036, 10069839073, 1052015384], "geometry": [{"lat": 47.3909173, "lon": 8.527934}, {"lat": 47.3909549, "lon": 8.5279642}, {"lat": 47.390959, "lon": 8.5279507}, {"lat": 47.3910205, "lon": 8.5279966}, {"lat": 47.3909803, "lon": 8.5281243}, {"lat": 47.390846, "lon": 8.5280301}, {"lat": 47.3908328, "lon": 8.5279825}, {"lat": 47.3908682, "lon": 8.5278966}, {"lat": 47.3909157, "lon": 8.527938}, {"lat": 47.3909173, "lon": 8.527934}], "tags": {"addr:city": "Z\u00fcrich", "addr:country": "CH", "addr:housenumber": "1", "addr:postcode": "8037", "addr:street": "Dammstrasse", "building": "yes", "name": "easyHotel Z\u00fcrich West", "source": "Stadt Z\u00fcrich Open Government Data; Geomatik + Vermessung; Tiefbau- und Entsorgungsdepartement", "tourism": "hotel", "website": "https://www.easyhotel.com/de/hotels/switzerland/zurich/zurich-west", "wikidata": "Q112013524"}}, {"type": "way", "id": 93699765, "bounds": {"minlat": 47.3787434, "minlon": 8.5436667, "maxlat": 47.3788665, "maxlon": 8.5438174}, "nodes": [1088059031, 1088059223, 1088059081, 1088058924, 1088058938, 1088058962, 1088059031], "geometry": [{"lat": 47.3787434, "lon": 8.5436812}, {"lat": 47.3788605, "lon": 8.5436667}, {"lat": 47.3788665, "lon": 8.5438079}, {"lat": 47.3787894, "lon": 8.5438174}, {"lat": 47.3787879, "lon": 8.5437861}, {"lat": 47.3787487, "lon": 8.5437909}, {"lat": 47.3787434, "lon": 8.5436812}], "tags": {"addr:city": "Z\u00fcrich", "addr:country": "CH", "addr:housenumber": "26", "addr:postcode": "8001", "addr:street": "Stampfenbachstrasse", "building": "yes", "contact:email": "hotel@hotelarlette.ch", "contact:phone": "+41 44 252 00 32", "contact:website": "http://www.arlette-beim-hauptbahnhof.ch", "internet_access": "wlan", "internet_access:fee": "no", "name": "Hotel Arlette", "opening_hours": "24/7", "payment:american_express": "yes", "payment:coins": "yes", "payment:diners_club": "yes", "payment:jcb": "yes", "payment:maestro": "yes", "payment:mastercard": "yes", "payment:notes": "yes", "payment:visa": "yes", "payment:visa_electron": "yes", "source": "Stadt Z\u00fcrich Open Government Data; Geomatik + Vermessung; Tiefbau- und Entsorgungsdepartement", "stars": "2", "tourism": "hotel", "wheelchair": "yes"}}, {"type": "way", "id": 105586804, "bounds": {"minlat": 47.3658858, "minlon": 8.5354953, "maxlat": 47.3668283, "maxlon": 8.5366861}, "nodes": [1215872710, 1215872712, 1215872709, 6357594222, 1215872711, 3051689941, 3730572242, 3730572241, 1215872710], "geometry": [{"lat": 47.3668103, "lon": 8.5360453}, {"lat": 47.3666084, "lon": 8.5354953}, {"lat": 47.3658858, "lon": 8.5360736}, {"lat": 47.3659149, "lon": 8.5361529}, {"lat": 47.3661107, "lon": 8.5366861}, {"lat": 47.3662372, "lon": 8.5365849}, {"lat": 47.3668283, "lon": 8.5361118}, {"lat": 47.3668053, "lon": 8.5360493}, {"lat": 47.3668103, "lon": 8.5360453}], "tags": {"brand": "Park Hyatt", "building": "yes", "name": "Park Hyatt Z\u00fcrich", "operator": "Z\u00fcrich Escherwiese Hotel GmbH;Hyatt Corporation", "phone": "+41 43 883 12 34", "tourism": "hotel", "website": "https://zurich.park.hyatt.com/", "wheelchair": "yes", "wikidata": "Q111409732"}}, {"type": "way", "id": 106454080, "bounds": {"minlat": 47.3625765, "minlon": 8.5471764, "maxlat": 47.3629651, "maxlon": 8.5475907}, "nodes": [1224679671, 5450866680, 5450866679, 2802959807, 2802959810, 2802959813, 2802959812, 1224679783, 2802959804, 2802959805, 2802958200, 2802959801, 2802958197, 2802958196, 2802958193, 2802958191, 1224679767, 2802958189, 2802958188, 2802958185, 2802958186, 5450866678, 5450866677, 1224679800, 5450866673, 5450866674, 1224679671], "geometry": [{"lat": 47.362901, "lon": 8.5471764}, {"lat": 47.3629123, "lon": 8.5472183}, {"lat": 47.3629159, "lon": 8.5472163}, {"lat": 47.3629323, "lon": 8.5472773}, {"lat": 47.3629396, "lon": 8.547273}, {"lat": 47.3629554, "lon": 8.5473316}, {"lat": 47.3629487, "lon": 8.5473355}, {"lat": 47.3629651, "lon": 8.5473964}, {"lat": 47.3628847, "lon": 8.5474435}, {"lat": 47.3628877, "lon": 8.547455}, {"lat": 47.3628476, "lon": 8.5474785}, {"lat": 47.3628502, "lon": 8.5474883}, {"lat": 47.3628243, "lon": 8.5475035}, {"lat": 47.3628226, "lon": 8.5474973}, {"lat": 47.3627814, "lon": 8.5475214}, {"lat": 47.3627773, "lon": 8.5475062}, {"lat": 47.3626331, "lon": 8.5475907}, {"lat": 47.3626186, "lon": 8.5475368}, {"lat": 47.3626083, "lon": 8.5475428}, {"lat": 47.3625895, "lon": 8.5474727}, {"lat": 47.3625994, "lon": 8.5474669}, {"lat": 47.362584, "lon": 8.5474096}, {"lat": 47.3625875, "lon": 8.5474075}, {"lat": 47.3625765, "lon": 8.5473664}, {"lat": 47.3627073, "lon": 8.5472898}, {"lat": 47.3627698, "lon": 8.5472532}, {"lat": 47.362901, "lon": 8.5471764}], "tags": {"addr:city": "Z\u00fcrich", "addr:country": "CH", "addr:housenumber": "45", "addr:postcode": "8008", "addr:street": "Utoquai", "building": "yes", "email": "info@lareserve-zurich.com", "internet_access": "wlan", "name": "La R\u00e9serve Eden au Lac Zurich", "phone": "+41 44 266 25 25", "rooms": "40", "source": "Stadt Z\u00fcrich Open Government Data;Geomatik + Vermessung;Tiefbau- und Entsorgungsdepartement", "tourism": "hotel", "website": "https://www.lareserve-zurich.com/", "wheelchair": "no", "wikimedia_commons": "Category:Eden au Lac"}}, {"type": "way", "id": 108333140, "bounds": {"minlat": 47.3822025, "minlon": 8.540259, "maxlat": 47.3827098, "maxlon": 8.5407605}, "nodes": [3222967486, 3222967480, 3222967479, 3222967476, 3222967475, 3222967474, 3222966883, 3222967473, 1243222461, 1243222336, 1243222362, 1243222278, 1243222349, 3222967477, 3222967478, 3222967481, 3222967482, 1243222441, 3222967483, 3222966886, 3222967484, 3222967485, 3222967487, 3222967488, 11883591564, 11883591565, 11883591566, 11883591567, 11883591568, 3222967486], "geometry": [{"lat": 47.3826298, "lon": 8.5402987}, {"lat": 47.382555, "lon": 8.5402925}, {"lat": 47.382555, "lon": 8.5402615}, {"lat": 47.3825078, "lon": 8.540259}, {"lat": 47.3825072, "lon": 8.5402734}, {"lat": 47.3824807, "lon": 8.5402727}, {"lat": 47.3824796, "lon": 8.5403106}, {"lat": 47.3824786, "lon": 8.5403419}, {"lat": 47.3824579, "lon": 8.540363}, {"lat": 47.382372, "lon": 8.5403571}, {"lat": 47.3822025, "lon": 8.5404788}, {"lat": 47.3822849, "lon": 8.5407414}, {"lat": 47.3825127, "lon": 8.5407605}, {"lat": 47.382525, "lon": 8.5407447}, {"lat": 47.3825257, "lon": 8.5407119}, {"lat": 47.3825555, "lon": 8.5407122}, {"lat": 47.3825558, "lon": 8.5406646}, {"lat": 47.3825808, "lon": 8.540664}, {"lat": 47.3825812, "lon": 8.5406255}, {"lat": 47.3826087, "lon": 8.5406267}, {"lat": 47.3826293, "lon": 8.5406274}, {"lat": 47.3826295, "lon": 8.5406145}, {"lat": 47.3826647, "lon": 8.5406155}, {"lat": 47.382665, "lon": 8.5405681}, {"lat": 47.3826712, "lon": 8.5404266}, {"lat": 47.3827062, "lon": 8.5404308}, {"lat": 47.3827098, "lon": 8.540358}, {"lat": 47.3826834, "lon": 8.5403554}, {"lat": 47.3826859, "lon": 8.5403063}, {"lat": 47.3826298, "lon": 8.5402987}], "tags": {"addr:city": "Z\u00fcrich", "addr:country": "CH", "addr:housenumber": "42", "addr:postcode": "8006", "addr:street": "Neum\u00fchlequai", "brand": "Marriott", "building": "hotel", "emergency": "fire_detection_system", "evacuation_system": "yes", "extinguishing:medium": "water", "extinguishing_system": "sprinkler_system", "int_name": "Zurich Marriott Hotel", "name": "Z\u00fcrich Marriott Hotel", "old_name": "Hotel Z\u00fcrich", "operator": "Hotel Z\u00fcrich AG;Marriott", "phone": "+41 44 360 70 70", "rooms": "266", "tourism": "hotel", "website": "http://www.zurichmarriott.com/", "wheelchair": "limited", "wikidata": "Q111409756"}}, {"type": "way", "id": 115942381, "bounds": {"minlat": 47.3602944, "minlon": 8.5497563, "maxlat": 47.3604681, "maxlon": 8.5500855}, "nodes": [1308549552, 1308549528, 1308549602, 1308549576, 3508101743, 1308549593, 1308549578, 1308549552], "geometry": [{"lat": 47.3602944, "lon": 8.5498069}, {"lat": 47.3603436, "lon": 8.5500513}, {"lat": 47.3603691, "lon": 8.5500401}, {"lat": 47.3603766, "lon": 8.5500773}, {"lat": 47.3603782, "lon": 8.5500855}, {"lat": 47.3604681, "lon": 8.550046}, {"lat": 47.3604097, "lon": 8.5497563}, {"lat": 47.3602944, "lon": 8.5498069}], "tags": {"addr:city": "Z\u00fcrich", "addr:country": "CH", "addr:housenumber": "24", "addr:postcode": "8008", "addr:street": "Mainaustrasse", "building": "yes", "name": "Alma", "phone": "+41 44 380 80 10", "source": "Stadt Z\u00fcrich Open Government Data;Geomatik + Vermessung;Tiefbau- und Entsorgungsdepartement", "tourism": "hotel", "website": "https://almahotel.ch/", "wheelchair": "yes"}}, {"type": "way", "id": 115946198, "bounds": {"minlat": 47.3613222, "minlon": 8.5492062, "maxlat": 47.3614778, "maxlon": 8.5494858}, "nodes": [1308572604, 1308572567, 1308572500, 1308572620, 1308572674, 1308572631, 1308572520, 1308572618, 1308572514, 1308572604], "geometry": [{"lat": 47.3614778, "lon": 8.5493761}, {"lat": 47.3614393, "lon": 8.5492062}, {"lat": 47.3613418, "lon": 8.5492501}, {"lat": 47.3613467, "lon": 8.5492787}, {"lat": 47.3613222, "lon": 8.5492948}, {"lat": 47.3613622, "lon": 8.5494082}, {"lat": 47.3613475, "lon": 8.5494195}, {"lat": 47.3613708, "lon": 8.5494858}, {"lat": 47.3614675, "lon": 8.5494102}, {"lat": 47.3614778, "lon": 8.5493761}], "tags": {"addr:city": "Z\u00fcrich", "addr:country": "CH", "addr:housenumber": "14", "addr:postcode": "8008", "addr:street": "Seegartenstrasse", "building": "yes", "check_date": "2024-03-19", "contact:email": "contact@hotel-seegarten.ch", "internet_access": "wlan", "name": "Seegarten", "phone": "+41 44 388 37 37", "source": "Stadt Z\u00fcrich Open Government Data; Geomatik + Vermessung; Tiefbau- und Entsorgungsdepartement", "tourism": "hotel", "website": "https://www.hotel-seegarten.ch/", "wheelchair": "no"}}, {"type": "way", "id": 131984119, "bounds": {"minlat": 47.3758903, "minlon": 8.5446422, "maxlat": 47.376046, "maxlon": 8.5449309}, "nodes": [387850520, 387850519, 387850509, 2906840337, 2906840336, 387850520], "geometry": [{"lat": 47.3759832, "lon": 8.5446422}, {"lat": 47.376046, "lon": 8.5448569}, {"lat": 47.3759359, "lon": 8.5449309}, {"lat": 47.3758964, "lon": 8.5447862}, {"lat": 47.3758903, "lon": 8.5446491}, {"lat": 47.3759832, "lon": 8.5446422}], "tags": {"addr:city": "Z\u00fcrich", "addr:country": "CH", "addr:housenumber": "36", "addr:postcode": "8001", "addr:street": "Z\u00e4hringerstrasse", "building": "yes", "name": "Marta", "source": "Stadt Z\u00fcrich Open Government Data;Geomatik + Vermessung;Tiefbau- und Entsorgungsdepartement", "tourism": "hotel", "wheelchair": "yes", "wikidata": "Q111409750"}}, {"type": "way", "id": 180844692, "bounds": {"minlat": 47.3591808, "minlon": 8.5243641, "maxlat": 47.3599414, "maxlon": 8.5248618}, "nodes": [3722714247, 3722714246, 3722714244, 3722714245, 3722714240, 3722714239, 3722714243, 8343625914, 3722714242, 3722714233, 1628127623, 3722426753, 3722426754, 1913014577, 1913014575, 1913014629, 1913014633, 3722714266, 1628127781, 1628127786, 3722714258, 3722714260, 3722714257, 8343639317, 1913014648, 1913014649, 3722714259, 1913014635, 1913014625, 1913014623, 1913014615, 1913014614, 1628127688, 8343639521, 3722714254, 8343639522, 3722714253, 8343622983, 3721930573, 8343622984, 3722714252, 8343622985, 3722714251, 8343622986, 3722714248, 8343622987, 3722714247], "geometry": [{"lat": 47.3593701, "lon": 8.5247858}, {"lat": 47.3593688, "lon": 8.5247736}, {"lat": 47.3593619, "lon": 8.5247753}, {"lat": 47.3593632, "lon": 8.5247875}, {"lat": 47.3592928, "lon": 8.5248045}, {"lat": 47.3592812, "lon": 8.5247005}, {"lat": 47.3593034, "lon": 8.5246951}, {"lat": 47.3593012, "lon": 8.5246754}, {"lat": 47.3593002, "lon": 8.5246662}, {"lat": 47.3591948, "lon": 8.5246917}, {"lat": 47.3591808, "lon": 8.5245663}, {"lat": 47.3592856, "lon": 8.5245408}, {"lat": 47.3592835, "lon": 8.5245219}, {"lat": 47.3594248, "lon": 8.5244876}, {"lat": 47.3594167, "lon": 8.524415}, {"lat": 47.3596143, "lon": 8.524367}, {"lat": 47.3596222, "lon": 8.5244374}, {"lat": 47.3598829, "lon": 8.5243742}, {"lat": 47.3599245, "lon": 8.5243641}, {"lat": 47.3599414, "lon": 8.5245162}, {"lat": 47.3596608, "lon": 8.5245843}, {"lat": 47.3596682, "lon": 8.5246504}, {"lat": 47.3596617, "lon": 8.524652}, {"lat": 47.3596727, "lon": 8.5247505}, {"lat": 47.3596818, "lon": 8.5248323}, {"lat": 47.3596671, "lon": 8.5248359}, {"lat": 47.3596679, "lon": 8.5248439}, {"lat": 47.3596369, "lon": 8.5248515}, {"lat": 47.3595943, "lon": 8.5248618}, {"lat": 47.3595932, "lon": 8.5248518}, {"lat": 47.3595788, "lon": 8.5248553}, {"lat": 47.359576, "lon": 8.5248297}, {"lat": 47.3595503, "lon": 8.5248212}, {"lat": 47.3595521, "lon": 8.5248032}, {"lat": 47.3595521, "lon": 8.5247865}, {"lat": 47.3595489, "lon": 8.5247688}, {"lat": 47.3595428, "lon": 8.5247529}, {"lat": 47.3595348, "lon": 8.5247405}, {"lat": 47.3595251, "lon": 8.5247311}, {"lat": 47.359513, "lon": 8.5247248}, {"lat": 47.3595001, "lon": 8.5247221}, {"lat": 47.3594881, "lon": 8.5247248}, {"lat": 47.359476, "lon": 8.5247318}, {"lat": 47.3594533, "lon": 8.5247503}, {"lat": 47.3594295, "lon": 8.5247653}, {"lat": 47.3594002, "lon": 8.5247782}, {"lat": 47.3593701, "lon": 8.5247858}], "tags": {"addr:city": "Z\u00fcrich", "addr:country": "CH", "addr:housenumber": "14", "addr:postcode": "8002", "addr:street": "Engimattstrasse", "building": "hotel", "name": "Engimatt", "stars": "4", "tourism": "hotel", "website": "https://engimatt.ch/"}}, {"type": "way", "id": 348877313, "bounds": {"minlat": 47.3721934, "minlon": 8.5716425, "maxlat": 47.3733656, "maxlon": 8.5751792}, "nodes": [3549277103, 3549277102, 3549277110, 5756647427, 3549277105, 5756647428, 5756647429, 3549277104, 5756647430, 5756647431, 3549277109, 5756647269, 5756647268, 3549277115, 3549277118, 5756647270, 5756647271, 5756647272, 3549277112, 1376433765, 5756647273, 3464902595, 3464902597, 285717073, 3549277106, 285717824, 3549277111, 3549277108, 5756647304, 3549277113, 3549277120, 3549277116, 5756647305, 3549277117, 3549277114, 82699476, 3549277119, 5756647306, 5756647307, 5756647308, 3549277103], "geometry": [{"lat": 47.3723704, "lon": 8.5729388}, {"lat": 47.3724898, "lon": 8.5740229}, {"lat": 47.3723477, "lon": 8.574535}, {"lat": 47.3722544, "lon": 8.5747455}, {"lat": 47.372213, "lon": 8.5748497}, {"lat": 47.3721977, "lon": 8.5749287}, {"lat": 47.3721934, "lon": 8.5749984}, {"lat": 47.3721987, "lon": 8.5750462}, {"lat": 47.3722173, "lon": 8.5751017}, {"lat": 47.372247, "lon": 8.5751479}, {"lat": 47.3722799, "lon": 8.5751683}, {"lat": 47.3723196, "lon": 8.5751792}, {"lat": 47.372353, "lon": 8.5751761}, {"lat": 47.3723872, "lon": 8.5751714}, {"lat": 47.3725269, "lon": 8.5751041}, {"lat": 47.37273, "lon": 8.5749968}, {"lat": 47.3728572, "lon": 8.5749295}, {"lat": 47.3729553, "lon": 8.5748865}, {"lat": 47.373027, "lon": 8.5748676}, {"lat": 47.3730363, "lon": 8.5747651}, {"lat": 47.3730817, "lon": 8.5746439}, {"lat": 47.3730985, "lon": 8.5746025}, {"lat": 47.373109, "lon": 8.5745742}, {"lat": 47.3732479, "lon": 8.5742132}, {"lat": 47.3731451, "lon": 8.5740692}, {"lat": 47.3733179, "lon": 8.57372}, {"lat": 47.3733624, "lon": 8.5732816}, {"lat": 47.3733656, "lon": 8.5731454}, {"lat": 47.3733025, "lon": 8.5731423}, {"lat": 47.3732946, "lon": 8.572837}, {"lat": 47.3731854, "lon": 8.5728072}, {"lat": 47.3730956, "lon": 8.5723533}, {"lat": 47.3731053, "lon": 8.5720197}, {"lat": 47.3731313, "lon": 8.5719132}, {"lat": 47.3730769, "lon": 8.5718738}, {"lat": 47.3726573, "lon": 8.5717284}, {"lat": 47.3724271, "lon": 8.5716425}, {"lat": 47.3723705, "lon": 8.5720416}, {"lat": 47.3723445, "lon": 8.5723563}, {"lat": 47.3723451, "lon": 8.5726217}, {"lat": 47.3723704, "lon": 8.5729388}], "tags": {"email": "info@thedoldergrand.com", "name": "The Dolder Grand", "phone": "+41 44 456 60 00", "stars": "5", "tourism": "hotel", "website": "https://www.thedoldergrand.com/", "wikidata": "Q692578", "wikimedia_commons": "Category:Grand Hotel Dolder", "wikipedia": "de:The Dolder Grand"}}, {"type": "way", "id": 373865160, "bounds": {"minlat": 47.3892484, "minlon": 8.5218361, "maxlat": 47.3895898, "maxlon": 8.5223277}, "nodes": [3772951783, 843532854, 843535071, 843534703, 843534317, 3772951814, 4011266452, 6539893053, 3772951817, 3772951803, 4191882095, 3772951768, 3772951783], "geometry": [{"lat": 47.3893359, "lon": 8.5222953}, {"lat": 47.3893838, "lon": 8.5221964}, {"lat": 47.3895079, "lon": 8.5223277}, {"lat": 47.3895898, "lon": 8.5221586}, {"lat": 47.3894662, "lon": 8.5220279}, {"lat": 47.3894938, "lon": 8.521971}, {"lat": 47.3895041, "lon": 8.5219498}, {"lat": 47.3895141, "lon": 8.5219292}, {"lat": 47.3895082, "lon": 8.5219229}, {"lat": 47.3894261, "lon": 8.5218361}, {"lat": 47.3894145, "lon": 8.52186}, {"lat": 47.3892484, "lon": 8.5222028}, {"lat": 47.3893359, "lon": 8.5222953}], "tags": {"addr:city": "Z\u00fcrich", "addr:country": "CH", "addr:housenumber": "254", "addr:postcode": "8005", "addr:street": "Heinrichstrasse", "alt_name": "Z\u00fcri by Fassbind", "building": "yes", "check_date": "2024-08-14", "int_name": "Senator", "name": "Hotel Z\u00fcri by Fassbind", "operator": "RV Hotel Management", "phone": "+41 44 448 18 18", "rooms": "167", "stars": "4", "start_date": "2017", "tourism": "hotel", "website": "https://byfassbind.com/de/hotel/zuri/", "wheelchair": "limited", "wikidata": "Q111874817"}}, {"type": "way", "id": 695939813, "bounds": {"minlat": 47.341387, "minlon": 8.5200829, "maxlat": 47.3419488, "maxlon": 8.5203794}, "nodes": [6534990856, 6534990855, 6534990854, 6534990853, 6534990852, 6534990851, 6534990850, 6534990849, 6534990848, 6534990856], "geometry": [{"lat": 47.3419488, "lon": 8.5201}, {"lat": 47.3419453, "lon": 8.5202971}, {"lat": 47.341659, "lon": 8.520289}, {"lat": 47.3414505, "lon": 8.5203794}, {"lat": 47.341422, "lon": 8.5202797}, {"lat": 47.3414686, "lon": 8.5202557}, {"lat": 47.3414698, "lon": 8.5201877}, {"lat": 47.341387, "lon": 8.5201856}, {"lat": 47.3413893, "lon": 8.5200829}, {"lat": 47.3419488, "lon": 8.5201}], "tags": {"addr:city": "Z\u00fcrich", "addr:housenumber": "41", "addr:postcode": "8041", "addr:street": "Maneggstrasse", "alt_name": "Meininger Hotel Z\u00fcrich", "branch": "Z\u00fcrich Manegg", "brand": "Meininger", "brand:wikidata": "Q42773330", "building": "yes", "name": "Meininger Hotel", "operator": "Meininger Hotels", "phone": "+41 43 508 02 07", "tourism": "hotel", "website": "https://www.meininger-hotels.com/de/hotels/zuerich/hotel-zuerich-greencity/"}}]